[{"OBJECT_NAME":"LAPAN-A3","OBJECT_ID":"2016-040E","EPOCH":"2026-03-09T23:01:57.724896","MEAN_MOTION":15.3238951,"ECCENTRICITY":0.00109839,"INCLINATION":97.1488,"RA_OF_ASC_NODE":68.4254,"ARG_OF_PERICENTER":22.062,"MEAN_ANOMALY":338.1093,"EPHEMERIS_TYPE":0,"CLASSIFICATION_TYPE":"U","NORAD_CAT_ID":41603,"ELEMENT_SET_NO":999,"REV_AT_EPOCH":53961,"BSTAR":0.00017567445,"MEAN_MOTION_DOT":5.428e-5,"MEAN_MOTION_DDOT":0},{"OBJECT_NAME":"STARLINK-35372","OBJECT_ID":"2025-262W","EPOCH":"2026-03-09T00:32:38.255136","MEAN_MOTION":15.27593831,"ECCENTRICITY":0.00019973,"INCLINATION":43.0051,"RA_OF_ASC_NODE":299.996,"ARG_OF_PERICENTER":257.8621,"MEAN_ANOMALY":102.2007,"EPHEMERIS_TYPE":0,"CLASSIFICATION_TYPE":"U","NORAD_CAT_ID":66476,"ELEMENT_SET_NO":999,"REV_AT_EPOCH":1869,"BSTAR":0.0014806254,"MEAN_MOTION_DOT":0.00040725,"MEAN_MOTION_DDOT":0}]
